STARLINK-2110           
1 47389U 21005AS  26068.29919794  .00002481  00000+0  95881-4 0  9990
2 47389  53.1630  38.5709 0001405  97.3418 262.7743 15.30196990283338
FLOCK 4G-13             
1 62621U 25009N   26068.70638971  .00053076  00000+0  16695-2 0  9995
2 62621  97.4019 151.0918 0003801 292.7207  67.3633 15.32770015 63700
