[{"OBJECT_NAME":"STARLINK-2110","OBJECT_ID":"2021-005AS","EPOCH":"2026-03-09T07:10:50.702016","MEAN_MOTION":15.3019699,"ECCENTRICITY":0.00014055,"INCLINATION":53.163,"RA_OF_ASC_NODE":38.5709,"ARG_OF_PERICENTER":97.3418,"MEAN_ANOMALY":262.7743,"EPHEMERIS_TYPE":0,"CLASSIFICATION_TYPE":"U","NORAD_CAT_ID":47389,"ELEMENT_SET_NO":999,"REV_AT_EPOCH":28333,"BSTAR":9.5880733e-5,"MEAN_MOTION_DOT":2.481e-5,"MEAN_MOTION_DDOT":0},{"OBJECT_NAME":"FLOCK 4G-13","OBJECT_ID":"2025-009N","EPOCH":"2026-03-09T16:57:12.071808","MEAN_MOTION":15.32770015,"ECCENTRICITY":0.0003801,"INCLINATION":97.4019,"RA_OF_ASC_NODE":151.0918,"ARG_OF_PERICENTER":292.7207,"MEAN_ANOMALY":67.3633,"EPHEMERIS_TYPE":0,"CLASSIFICATION_TYPE":"U","NORAD_CAT_ID":62621,"ELEMENT_SET_NO":999,"REV_AT_EPOCH":6370,"BSTAR":0.0016695386,"MEAN_MOTION_DOT":0.00053076,"MEAN_MOTION_DDOT":0}]
